ERS-1                   
1 21574U 91050A   26069.04488751  .00000393  00000+0  14037-3 0  9996
2 21574  98.7882  87.2884 0031635 199.3829 160.6157 14.39449653815782
ARIANE 40 R/B           
1 21610U 91050F   26069.16434037  .00000364  00000+0  12144-3 0  9993
2 21610  98.2010 121.3829 0004298  80.2346 279.9330 14.42894016819060
INTERCOSMOS 25          
1 21819U 91086A   26069.15306100  .00001764  00000+0  33862-3 0  9996
2 21819  82.6045 309.7287 1486968 115.9335 260.2411 12.12000626496749
SL-8 R/B                
1 21876U 92008B   26069.09708389  .00000014  00000+0 -12336-5 0  9995
2 21876  82.9225 267.4753 0035593 132.1695 346.8371 13.75969834709474
SL-8 R/B                
1 21938U 92020B   26069.27273858  .00000068  00000+0  55107-4 0  9996
2 21938  82.9336 153.3288 0027690 297.0962 117.1074 13.75549534701213
USA 81                  
1 21949U 92023A   26069.14780973  .00000197  00000+0  65423-4 0  9993
2 21949  85.0084 131.1769 0002443  77.2317 282.9149 14.32368178 94854
COSMOS 2219             
1 22219U 92076A   26069.29911910  .00000108  00000+0  81559-4 0  9995
2 22219  71.0636  16.7932 0018975 206.2101 153.8063 14.14092740718465
SL-16 R/B               
1 22220U 92076B   26069.32615035 -.00000175  00000+0 -63212-4 0  9992
2 22220  71.0008 187.0329 0010460  95.2506 296.2076 14.16859544721924
COSMOS 2221             
1 22236U 92080A   26068.97175667  .00002227  00000+0  19500-3 0  9994
2 22236  82.5011 278.8108 0014070 186.0623 174.0431 14.96201420780831
SL-16 R/B               
1 22285U 92093B   26069.23419007 -.00000195  00000+0 -75334-4 0  9993
2 22285  71.0241   3.1226 0006400 293.1429  66.9019 14.15447732713235
COSMOS 2228             
1 22286U 92094A   26069.25526611  .00002997  00000+0  25636-3 0  9996
2 22286  82.5157 236.7686 0016783 302.7017  57.2586 14.97193444776147
SL-16 R/B               
1 22566U 93016B   26068.85060718  .00000109  00000+0  80304-4 0  9995
2 22566  71.0073 214.8427 0011827 314.0352  45.9796 14.15308750702199
